stk.v.10.0
# WrittenBy    GMAT R2020a
BEGIN Ephemeris
NumberOfEphemerisPoints 17281
ScenarioEpoch           01 Jan 2023 00:00:00.000
InterpolationMethod     Lagrange
InterpolationOrder      7
CentralBody             Earth
CoordinateSystem        J2000
DistanceUnit            Kilometers
BEGIN SegmentBoundaryTimes
   0.000000000000000e+00
   2.499500000027474e+04
   4.999500000014668e+04
   7.499500000001863e+04
END SegmentBoundaryTimes

EphemerisTimePosVel

7.153500000026543e+04   6.602047467885856e+03   1.460727288127160e+03   1.509410014986948e+03   1.820492466495238e+00  -6.488902830453562e-01  -7.334734547390957e+00
7.154000000017695e+04   6.611050966630232e+03   1.457460966908968e+03   1.472713909875572e+03   1.780898022968963e+00  -6.576349380454329e-01  -7.343670795317130e+00
7.154500000008848e+04   6.619856359249494e+03   1.454150971573337e+03   1.435973673560532e+03   1.741250213259054e+00  -6.663598864215621e-01  -7.352386983466919e+00
7.155000000000000e+04   6.628463381881791e+03   1.450797401307296e+03   1.399190406997309e+03   1.701550225449843e+00  -6.750648667225310e-01  -7.360882850651781e+00
7.155500000022585e+04   6.636871776609583e+03   1.447400356603623e+03   1.362365212430853e+03   1.661799249189249e+00  -6.837496180954811e-01  -7.369158142285268e+00
7.156000000013737e+04   6.645081291467370e+03   1.443959939257850e+03   1.325499193362542e+03   1.621998475653125e+00  -6.924138802937246e-01  -7.377212610390666e+00
7.156500000004889e+04   6.653091680449238e+03   1.440476252365204e+03   1.288593454517111e+03   1.582149097509554e+00  -7.010573936845483e-01  -7.385046013608428e+00
7.157000000027474e+04   6.660902703514785e+03   1.436949400317170e+03   1.251649101808983e+03   1.542252308882456e+00  -7.096798992568937e-01  -7.392658117201765e+00
7.157500000018626e+04   6.668514126563047e+03   1.433379488790297e+03   1.214667242296378e+03   1.502309305301051e+00  -7.182811386268930e-01  -7.400048693026601e+00
7.158000000009779e+04   6.675925721549081e+03   1.429766624769573e+03   1.177648984190095e+03   1.462321283712589e+00  -7.268608540529560e-01  -7.407217519660597e+00
7.158500000000931e+04   6.683137266378244e+03   1.426110916517960e+03   1.140595436777198e+03   1.422289442396596e+00  -7.354187884359539e-01  -7.414164382284278e+00
7.159000000023516e+04   6.690148544950589e+03   1.422412473582280e+03   1.103507710402199e+03   1.382214980945666e+00  -7.439546853294499e-01  -7.420889072729519e+00
7.159500000014668e+04   6.696959347167303e+03   1.418671406789933e+03   1.066386916433790e+03   1.342099100229506e+00  -7.524682889473888e-01  -7.427391389485781e+00
7.160000000005821e+04   6.703569468937011e+03   1.414887828245571e+03   1.029234167231515e+03   1.301943002358934e+00  -7.609593441717597e-01  -7.433671137706146e+00
7.160500000028405e+04   6.709978712181887e+03   1.411061851327736e+03   9.920505761124356e+02   1.261747890649852e+00  -7.694275965602452e-01  -7.439728129213143e+00
7.161000000019558e+04   6.716186884843595e+03   1.407193590685464e+03   9.548372573177563e+02   1.221514969587172e+00  -7.778727923538453e-01  -7.445562182504396e+00
7.161500000010710e+04   6.722193800889020e+03   1.403283162234842e+03   9.175953259794270e+02   1.181245444788715e+00  -7.862946784844845e-01  -7.451173122758036e+00
7.162000000001863e+04   6.727999280315863e+03   1.399330683155541e+03   8.803258980867162e+02   1.140940522969071e+00  -7.946930025825965e-01  -7.456560781837960e+00
7.162500000024447e+04   6.733603149158016e+03   1.395336271887292e+03   8.430300904527621e+02   1.100601411903429e+00  -8.030675129846874e-01  -7.461724998298866e+00
7.163000000015600e+04   6.739005239490788e+03   1.391300048126349e+03   8.057090206810990e+02   1.060229320391380e+00  -8.114179587408794e-01  -7.466665617391072e+00
7.163500000006752e+04   6.744205389435929e+03   1.387222132821887e+03   7.683638071321560e+02   1.019825458220676e+00  -8.197440896224318e-01  -7.471382491065163e+00
7.163999999997905e+04   6.749203443166476e+03   1.383102648172390e+03   7.309955688897387e+02   9.793910361309820e-01  -8.280456561292427e-01  -7.475875477976432e+00
7.164500000020489e+04   6.753999250911438e+03   1.378941717621975e+03   6.936054257274891e+02   9.389272657775753e-01  -8.363224094973245e-01  -7.480144443489110e+00
7.165000000011642e+04   6.758592668960268e+03   1.374739465856706e+03   6.561944980753231e+02   8.984353596950403e-01  -8.445741017062595e-01  -7.484189259680408e+00
7.165500000002794e+04   6.762983559667195e+03   1.370496018800846e+03   6.187639069858493e+02   8.579165312609193e-01  -8.528004854866380e-01  -7.488009805344338e+00
7.166000000025379e+04   6.767171791455321e+03   1.366211503613090e+03   5.813147741007717e+02   8.173719946593542e-01  -8.610013143274632e-01  -7.491605965995369e+00
7.166500000016531e+04   6.771157238814355e+03   1.361886048682579e+03   5.438482216247517e+02   7.768029648526367e-01  -8.691763424811256e-01  -7.494977633865145e+00
7.167000000007683e+04   6.774939782297115e+03   1.357519783624851e+03   5.063653723004165e+02   7.362106575539890e-01  -8.773253249679648e-01  -7.498124707897994e+00
7.167499999998836e+04   6.778519308583195e+03   1.353112839279631e+03   4.688673493028741e+02   6.955962891147723e-01  -8.854480176068722e-01  -7.501047093818302e+00
7.168000000021420e+04   6.781895710409631e+03   1.348665347704887e+03   4.313552762930338e+02   6.549610765804842e-01  -8.935441769944504e-01  -7.503744704055433e+00
7.168500000012573e+04   6.785068886600253e+03   1.344177442173595e+03   3.938302773527075e+02   6.143062376210953e-01  -9.016135605224164e-01  -7.506217457774330e+00
7.169000000003725e+04   6.788038742068687e+03   1.339649257169754e+03   3.562934769509376e+02   5.736329904945774e-01  -9.096559263848684e-01  -7.508465280877929e+00
7.169500000026310e+04   6.790805187821220e+03   1.335080928384353e+03   3.187459999103176e+02   5.329425540104116e-01  -9.176710335855282e-01  -7.510488106009384e+00
7.170000000017462e+04   6.793368140959432e+03   1.330472592711305e+03   2.811889713732989e+02   4.922361474930823e-01  -9.256586419449592e-01  -7.512285872554068e+00
7.170500000008615e+04   6.795727524682712e+03   1.325824388243348e+03   2.436235167684913e+02   4.515149907455549e-01  -9.336185121077597e-01  -7.513858526641397e+00
7.170999999999767e+04   6.797883268290537e+03   1.321136454267908e+03   2.060507617769529e+02   4.107803040127389e-01  -9.415504055497320e-01  -7.515206021146423e+00
7.171500000022352e+04   6.799835307184582e+03   1.316408931262927e+03   1.684718322984749e+02   3.700333079449414e-01  -9.494540845850266e-01  -7.516328315691273e+00
7.172000000013504e+04   6.801583582870668e+03   1.311641960892655e+03   1.308878544178584e+02   3.292752235613038e-01  -9.573293123732607e-01  -7.517225376646322e+00
7.172500000004657e+04   6.803128042960514e+03   1.306835686003407e+03   9.329995437118589e+01   2.885072722132322e-01  -9.651758529266127e-01  -7.517897177131238e+00
7.173000000027241e+04   6.804468641173288e+03   1.301990250619287e+03   5.570925851208893e+01   2.477306755478139e-01  -9.729934711168906e-01  -7.518343697015759e+00
7.173500000018394e+04   6.805605337337027e+03   1.297105799937867e+03   1.811689327801189e+01   2.069466554712276e-01  -9.807819326825735e-01  -7.518564922920297e+00
7.174000000009546e+04   6.806538097389807e+03   1.292182480325850e+03  -1.947601484352807e+01   1.661564341121445e-01  -9.885410042358292e-01  -7.518560848216367e+00
7.174500000000698e+04   6.807266893380791e+03   1.287220439314673e+03  -5.706833934868062e+01   1.253612337851233e-01  -9.962704532695066e-01  -7.518331473026771e+00
7.175000000023283e+04   6.807791703471062e+03   1.282219825596102e+03  -9.465895375100511e+01   8.456227695399725e-02  -1.003970048164098e+00  -7.517876804225586e+00
7.175500000014435e+04   6.808112511934269e+03   1.277180789017769e+03  -1.322467316152119e+02   4.376078619525922e-02  -1.011639558194678e+00  -7.517196855437983e+00
7.176000000005588e+04   6.808229309147072e+03   1.272103480574791e+03  -1.698305466055474e+02   2.957984145264630e-03  -1.019278753539332e+00  -7.516291647028313e+00
7.176500000028173e+04   6.808142091600997e+03   1.266988052409734e+03  -2.074092725026673e+02  -3.784490651776237e-02  -1.026887405284294e+00  -7.515161206112737e+00
7.177000000019325e+04   6.807850861929029e+03   1.261834657818331e+03  -2.449817831988055e+02  -7.864666306775588e-02  -1.034465285426814e+00  -7.513805566588753e+00
7.177500000010477e+04   6.807355628858704e+03   1.256643451226723e+03  -2.825469527997195e+02  -1.194460628427787e-01  -1.042012166889051e+00  -7.512224769080568e+00
7.178000000001630e+04   6.806656407230666e+03   1.251414588194132e+03  -3.201036556310295e+02  -1.602418832513965e-01  -1.049527823522033e+00  -7.510418860959412e+00
7.178500000024214e+04   6.805753217998222e+03   1.246148225408195e+03  -3.576507662719547e+02  -2.010329018093195e-01  -1.057012030112446e+00  -7.508387896342114e+00
7.179000000015367e+04   6.804646088226692e+03   1.240844520680267e+03  -3.951871595890436e+02  -2.418178961760413e-01  -1.064464562389374e+00  -7.506131936089490e+00
7.179500000006519e+04   6.803335051092612e+03   1.235503632940692e+03  -4.327117107698957e+02  -2.825956441914746e-01  -1.071885197031027e+00  -7.503651047804499e+00
7.179999999997672e+04   6.801820145882743e+03   1.230125722234043e+03  -4.702232953568741e+02  -3.233649239125824e-01  -1.079273711671430e+00  -7.500945305830216e+00
7.180500000020256e+04   6.800101417992881e+03   1.224710949714317e+03  -5.077207892808084e+02  -3.641245136500007e-01  -1.086629884907087e+00  -7.498014791247628e+00
7.181000000011409e+04   6.798178918926495e+03   1.219259477640112e+03  -5.452030688946858e+02  -4.048731920046583e-01  -1.093953496303623e+00  -7.494859591873173e+00
7.181500000002561e+04   6.796052706293206e+03   1.213771469369763e+03  -5.826690110073306e+02  -4.456097379043839e-01  -1.101244326402387e+00  -7.491479802256136e+00
END Ephemeris

